[{"OBJECT_NAME":"SL-8 R/B","OBJECT_ID":"1988-053B","EPOCH":"2026-03-08T14:59:00.193056","MEAN_MOTION":14.38915235,"ECCENTRICITY":0.00214013,"INCLINATION":74.0462,"RA_OF_ASC_NODE":114.4304,"ARG_OF_PERICENTER":293.8475,"MEAN_ANOMALY":182.5791,"EPHEMERIS_TYPE":0,"CLASSIFICATION_TYPE":"U","NORAD_CAT_ID":19257,"ELEMENT_SET_NO":999,"REV_AT_EPOCH":97644,"BSTAR":0.00011922442,"MEAN_MOTION_DOT":3.42e-6,"MEAN_MOTION_DDOT":0},{"OBJECT_NAME":"COSMOS 1975","OBJECT_ID":"1988-093A","EPOCH":"2026-03-08T14:40:40.554336","MEAN_MOTION":15.28054283,"ECCENTRICITY":0.00120381,"INCLINATION":82.5181,"RA_OF_ASC_NODE":118.7674,"ARG_OF_PERICENTER":167.1429,"MEAN_ANOMALY":193.0119,"EPHEMERIS_TYPE":0,"CLASSIFICATION_TYPE":"U","NORAD_CAT_ID":19573,"ELEMENT_SET_NO":999,"REV_AT_EPOCH":1924,"BSTAR":0.00038331138,"MEAN_MOTION_DOT":0.00010542,"MEAN_MOTION_DDOT":0},{"OBJECT_NAME":"SL-14 R/B","OBJECT_ID":"1988-093B","EPOCH":"2026-03-08T11:03:05.624064","MEAN_MOTION":14.85655229,"ECCENTRICITY":0.00218435,"INCLINATION":82.5304,"RA_OF_ASC_NODE":43.1975,"ARG_OF_PERICENTER":45.3232,"MEAN_ANOMALY":72.2821,"EPHEMERIS_TYPE":0,"CLASSIFICATION_TYPE":"U","NORAD_CAT_ID":19574,"ELEMENT_SET_NO":999,"REV_AT_EPOCH":83,"BSTAR":9.4863146e-5,"MEAN_MOTION_DOT":8.49e-6,"MEAN_MOTION_DDOT":0},{"OBJECT_NAME":"SL-16 R/B","OBJECT_ID":"1988-102B","EPOCH":"2026-03-08T15:12:14.518368","MEAN_MOTION":14.1615142,"ECCENTRICITY":0.00138888,"INCLINATION":71,"RA_OF_ASC_NODE":153.7196,"ARG_OF_PERICENTER":3.3231,"MEAN_ANOMALY":356.7981,"EPHEMERIS_TYPE":0,"CLASSIFICATION_TYPE":"U","NORAD_CAT_ID":19650,"ELEMENT_SET_NO":999,"REV_AT_EPOCH":92674,"BSTAR":0.00017680593,"MEAN_MOTION_DOT":3.02e-6,"MEAN_MOTION_DDOT":0},{"OBJECT_NAME":"INTERCOSMOS 24","OBJECT_ID":"1989-080A","EPOCH":"2026-03-08T12:45:36.617184","MEAN_MOTION":12.59556211,"ECCENTRICITY":0.11867125,"INCLINATION":82.6028,"RA_OF_ASC_NODE":105.1585,"ARG_OF_PERICENTER":295.5108,"MEAN_ANOMALY":52.7949,"EPHEMERIS_TYPE":0,"CLASSIFICATION_TYPE":"U","NORAD_CAT_ID":20261,"ELEMENT_SET_NO":999,"REV_AT_EPOCH":66665,"BSTAR":0.00028986063,"MEAN_MOTION_DOT":9.73e-6,"MEAN_MOTION_DDOT":0},{"OBJECT_NAME":"SL-14 R/B","OBJECT_ID":"1989-080C","EPOCH":"2026-03-08T14:17:38.943168","MEAN_MOTION":12.50492282,"ECCENTRICITY":0.12305346,"INCLINATION":82.5974,"RA_OF_ASC_NODE":173.8883,"ARG_OF_PERICENTER":187.2494,"MEAN_ANOMALY":170.9255,"EPHEMERIS_TYPE":0,"CLASSIFICATION_TYPE":"U","NORAD_CAT_ID":20262,"ELEMENT_SET_NO":999,"REV_AT_EPOCH":66001,"BSTAR":0.00024579577,"MEAN_MOTION_DOT":8.29e-6,"MEAN_MOTION_DDOT":0},{"OBJECT_NAME":"DELTA 1 R/B","OBJECT_ID":"1989-089B","EPOCH":"2026-03-08T14:04:07.280832","MEAN_MOTION":14.50662106,"ECCENTRICITY":0.00704094,"INCLINATION":97.0706,"RA_OF_ASC_NODE":275.2004,"ARG_OF_PERICENTER":125.4161,"MEAN_ANOMALY":235.364,"EPHEMERIS_TYPE":0,"CLASSIFICATION_TYPE":"U","NORAD_CAT_ID":20323,"ELEMENT_SET_NO":999,"REV_AT_EPOCH":89557,"BSTAR":0.00012208619,"MEAN_MOTION_DOT":4.6e-6,"MEAN_MOTION_DDOT":0},{"OBJECT_NAME":"ARIANE 40 R/B","OBJECT_ID":"1990-005H","EPOCH":"2026-03-08T03:29:52.263456","MEAN_MOTION":14.39869513,"ECCENTRICITY":0.00097499,"INCLINATION":98.3086,"RA_OF_ASC_NODE":127.8532,"ARG_OF_PERICENTER":203.195,"MEAN_ANOMALY":156.88,"EPHEMERIS_TYPE":0,"CLASSIFICATION_TYPE":"U","NORAD_CAT_ID":20443,"ELEMENT_SET_NO":999,"REV_AT_EPOCH":89258,"BSTAR":0.00013608374,"MEAN_MOTION_DOT":3.85e-6,"MEAN_MOTION_DDOT":0},{"OBJECT_NAME":"DELTA 2 R/B(1)","OBJECT_ID":"1990-008B","EPOCH":"2026-03-08T09:53:27.707136","MEAN_MOTION":15.55817429,"ECCENTRICITY":0.00856772,"INCLINATION":35.6042,"RA_OF_ASC_NODE":183.2376,"ARG_OF_PERICENTER":246.9553,"MEAN_ANOMALY":112.213,"EPHEMERIS_TYPE":0,"CLASSIFICATION_TYPE":"U","NORAD_CAT_ID":20453,"ELEMENT_SET_NO":999,"REV_AT_EPOCH":92593,"BSTAR":0.001075869,"MEAN_MOTION_DOT":0.00091801,"MEAN_MOTION_DDOT":0},{"OBJECT_NAME":"COSMOS 2058","OBJECT_ID":"1990-010A","EPOCH":"2026-03-08T09:21:50.400288","MEAN_MOTION":15.11309469,"ECCENTRICITY":0.00094775,"INCLINATION":82.467,"RA_OF_ASC_NODE":48.7083,"ARG_OF_PERICENTER":348.3196,"MEAN_ANOMALY":11.7813,"EPHEMERIS_TYPE":0,"CLASSIFICATION_TYPE":"U","NORAD_CAT_ID":20465,"ELEMENT_SET_NO":999,"REV_AT_EPOCH":94204,"BSTAR":0.00038917022,"MEAN_MOTION_DOT":6.588e-5,"MEAN_MOTION_DDOT":0},{"OBJECT_NAME":"SL-14 R/B","OBJECT_ID":"1990-010B","EPOCH":"2026-03-08T14:35:09.807360","MEAN_MOTION":14.83567933,"ECCENTRICITY":0.00186067,"INCLINATION":82.4988,"RA_OF_ASC_NODE":268.4055,"ARG_OF_PERICENTER":306.1593,"MEAN_ANOMALY":53.79,"EPHEMERIS_TYPE":0,"CLASSIFICATION_TYPE":"U","NORAD_CAT_ID":20466,"ELEMENT_SET_NO":999,"REV_AT_EPOCH":92832,"BSTAR":6.3993883e-5,"MEAN_MOTION_DOT":5.52e-6,"MEAN_MOTION_DDOT":0},{"OBJECT_NAME":"SL-14 R/B","OBJECT_ID":"1990-018B","EPOCH":"2026-03-08T11:44:55.798944","MEAN_MOTION":14.82143691,"ECCENTRICITY":0.00176675,"INCLINATION":82.5201,"RA_OF_ASC_NODE":224.2114,"ARG_OF_PERICENTER":95.6739,"MEAN_ANOMALY":264.6491,"EPHEMERIS_TYPE":0,"CLASSIFICATION_TYPE":"U","NORAD_CAT_ID":20511,"ELEMENT_SET_NO":999,"REV_AT_EPOCH":92240,"BSTAR":9.0584236e-5,"MEAN_MOTION_DOT":7.46e-6,"MEAN_MOTION_DDOT":0},{"OBJECT_NAME":"HST","OBJECT_ID":"1990-037B","EPOCH":"2026-03-08T01:12:43.887744","MEAN_MOTION":15.29454135,"ECCENTRICITY":0.00017979,"INCLINATION":28.4714,"RA_OF_ASC_NODE":51.18,"ARG_OF_PERICENTER":110.1029,"MEAN_ANOMALY":249.976,"EPHEMERIS_TYPE":0,"CLASSIFICATION_TYPE":"U","NORAD_CAT_ID":20580,"ELEMENT_SET_NO":999,"REV_AT_EPOCH":77306,"BSTAR":0.00036739108,"MEAN_MOTION_DOT":0.00011037,"MEAN_MOTION_DDOT":0},{"OBJECT_NAME":"SL-16 R/B","OBJECT_ID":"1990-046B","EPOCH":"2026-03-08T15:17:00.603456","MEAN_MOTION":14.15012777,"ECCENTRICITY":0.00162304,"INCLINATION":70.9988,"RA_OF_ASC_NODE":300.1262,"ARG_OF_PERICENTER":301.0801,"MEAN_ANOMALY":58.8729,"EPHEMERIS_TYPE":0,"CLASSIFICATION_TYPE":"U","NORAD_CAT_ID":20625,"ELEMENT_SET_NO":999,"REV_AT_EPOCH":84824,"BSTAR":-0.00010259723,"MEAN_MOTION_DOT":-2.47e-6,"MEAN_MOTION_DDOT":0},{"OBJECT_NAME":"COSMOS 2084","OBJECT_ID":"1990-055A","EPOCH":"2026-03-08T04:39:58.396896","MEAN_MOTION":15.05642001,"ECCENTRICITY":0.00172459,"INCLINATION":62.7922,"RA_OF_ASC_NODE":340.6779,"ARG_OF_PERICENTER":189.4903,"MEAN_ANOMALY":170.5875,"EPHEMERIS_TYPE":0,"CLASSIFICATION_TYPE":"U","NORAD_CAT_ID":20663,"ELEMENT_SET_NO":999,"REV_AT_EPOCH":93609,"BSTAR":0.00029484744,"MEAN_MOTION_DOT":4.09e-5,"MEAN_MOTION_DDOT":0},{"OBJECT_NAME":"SL-6 R/B(2)","OBJECT_ID":"1990-055D","EPOCH":"2026-03-08T05:47:47.768640","MEAN_MOTION":15.03587268,"ECCENTRICITY":0.00244855,"INCLINATION":62.7824,"RA_OF_ASC_NODE":258.7755,"ARG_OF_PERICENTER":346.6765,"MEAN_ANOMALY":13.3685,"EPHEMERIS_TYPE":0,"CLASSIFICATION_TYPE":"U","NORAD_CAT_ID":20666,"ELEMENT_SET_NO":999,"REV_AT_EPOCH":93797,"BSTAR":0.0002358802,"MEAN_MOTION_DOT":3.059e-5,"MEAN_MOTION_DDOT":0},{"OBJECT_NAME":"SL-8 R/B","OBJECT_ID":"1990-078B","EPOCH":"2026-03-08T13:37:27.132960","MEAN_MOTION":14.89017204,"ECCENTRICITY":0.0362517,"INCLINATION":82.9002,"RA_OF_ASC_NODE":252.32,"ARG_OF_PERICENTER":17.7819,"MEAN_ANOMALY":343.5702,"EPHEMERIS_TYPE":0,"CLASSIFICATION_TYPE":"U","NORAD_CAT_ID":20775,"ELEMENT_SET_NO":999,"REV_AT_EPOCH":80913,"BSTAR":0.00062261863,"MEAN_MOTION_DOT":0.00021146,"MEAN_MOTION_DDOT":0}]
